#aV2008  2 12  0  0   .00000000      96 DD+AD WGS84 FIT  NGA
## 1466 172800.00000000   900.00000000 54508  .0000000000000
+   31     1  2  3  4  5  6  8  9 10 11 12 13 14 15 16 17 18
+         19 20 21 22 23 24 25 26 27 28 29 30 31 32  0  0  0
+          0  0  0  0  0  0  0  0  0  0  0  0  0  0  0  0  0
+          0  0  0  0  0  0  0  0  0  0  0  0  0  0  0  0  0
+          0  0  0  0  0  0  0  0  0  0  0  0  0  0  0  0  0
++         0  0  0  0  0  0  0  0  0  0  0  0  0  0  0  0  0
++         0  0  0  0  0  0  0  0  0  0  0  0  0  0  0  0  0
++         0  0  0  0  0  0  0  0  0  0  0  0  0  0  0  0  0
++         0  0  0  0  0  0  0  0  0  0  0  0  0  0  0  0  0
++         0  0  0  0  0  0  0  0  0  0  0  0  0  0  0  0  0
%c cc cc ccc ccc cccc cccc cccc cccc ccccc ccccc ccccc ccccc
%c cc cc ccc ccc cccc cccc cccc cccc ccccc ccccc ccccc ccccc
%f  0.0000000  0.000000000  0.00000000000  0.000000000000000
%f  0.0000000  0.000000000  0.00000000000  0.000000000000000
%i    0    0    0    0      0      0      0      0         0
%i    0    0    0    0      0      0      0      0         0
/*      NGA, ST. LOUIS,MO.                                  
/*   EPHEMERIS COMPUTED FROM  3 DAYS OF DATA                
/* CCCCCCCCCCCCCCCCCCCCCCCCCCCCCCCCCCCCCCCCCCCCCCCCCCCCCCCCC
/* CCCCCCCCCCCCCCCCCCCCCCCCCCCCCCCCCCCCCCCCCCCCCCCCCCCCCCCCC
*  2008  2 12 12  0   .00000000                                                 
P  1  19103.315169  18262.394763   3221.638020    185.257380                    
V  1  -4048.974293  -1040.208658  32029.470440       .025827                    
P  2 -13347.246375 -11905.459416 -19914.633115    173.773164                    
V  2   3490.404314 -24634.433436  12174.576618       .030437                    
P  3  24303.782540  10064.800172   4582.248805    186.188163                    
V  3   3500.615689   6126.332628 -30024.194834       .052666                    
P  4  -7127.051400 -21778.752522 -13205.302013     -7.611081                    
V  4   4807.051466 -16356.751558  24919.433084      -.064900                    
P  5 -19637.297936  16558.742447  -6716.527007    685.864426                    
V  5  -8819.583357   1121.191191  29851.966633       .147251                    
P  6   2317.733570  18347.871942 -18897.398372     18.018367                    
V  6 -21303.427122 -12098.814024 -14275.489379       .184050                    
P  8    -64.360316 -25596.945869   6008.343001   -140.722911                    
V  8   3648.069399  -7352.104602 -31284.254441      -.015872                    
P  9 -13522.630554  12514.004853  18448.940519    110.137551                    
V  9     90.222980 -24810.452910  16522.789715       .018666                    
P 10 -22927.346777   -806.386593 -13793.701974   -243.761198                    
V 10  15150.508732  -8265.883974 -24604.035390      -.123672                    
P 11  12741.278284 -15339.494152  17254.132731     27.014222                    
V 11   4726.835221  22281.881895  16505.029797      -.000352                    
P 12 -23448.770026  12154.370253  -2276.010338   -356.347402                    
V 12  -3885.691969  -1333.328992  31690.722274      -.007802                    
P 13   3539.778873 -15122.963344 -21657.363348    239.718808                    
V 13  21507.564188  16570.977298  -8066.664783       .021446                    
P 14  12207.837165  19948.815943  12776.150848   -298.232828                    
V 14 -13572.547945  -8557.987947  26454.721078       .030486                    
P 15 -21943.666442  -2868.706324  14711.265456    -76.298111                    
V 15 -13970.404656 -12527.251278 -23327.554319      -.026819                    
P 16  20211.419242   4028.445245 -16779.380714    132.811082                    
V 16 -19027.345642   9860.264635 -20281.428778       .000461                    
P 17 -11804.469445 -20056.832065  12965.402327     42.670635                    
V 17  14445.046603   7999.183320  25421.818774      -.006250                    
P 18 -10721.137335  17383.965142  16959.953087   -204.985980                    
V 18 -20640.827606   5978.719939 -19715.263036       .030269                    
P 19  21508.889538   3952.496210  15271.034928     20.486011                    
V 19  13478.936214  13791.767113 -22514.111084       .014442                    
P 20  22028.706620 -14029.282322  -4798.302445    120.716410                    
V 20   6741.440636    336.527485  30733.067941      -.007604                    
P 21  -5345.897343  25528.605149  -2662.059544     71.835115                    
V 21  -3575.736369  -4146.754355 -31351.215386      -.007922                    
P 22   4113.218911  15095.069364  21616.254348    208.378453                    
V 22 -25332.192216   9730.073278  -2027.563152       .003187                    
P 23  16405.443763  -5240.058569 -20346.136753    333.514506                    
V 23  20203.342632  15739.795397  12048.210819       .028392                    
P 24 -12774.790182  18913.896232 -13648.526852     69.934601                    
V 24    516.430020 -17656.582350 -24356.963154       .029935                    
P 25   7635.906258 -23004.968566 -10680.878435    511.091685                    
V 25   2241.936995  14075.647150 -27590.803462       .053173                    
P 26 -22395.136227  -7662.037456  12131.057229    181.270341                    
V 26 -11699.675781 -10831.462487 -26858.962270       .100547                    
P 27   3552.613828 -25888.392314  -3527.407401    167.325110                    
V 27   2560.716974   5445.544716 -31598.671031       .025691                    
P 28  -1499.709459 -15704.467429  21695.070538    -15.021893                    
V 28  24909.066584  -9687.458609  -5723.469601      -.003871                    
P 29  -7528.496806  13284.620902 -21619.344729    -61.489140                    
V 29 -22260.771763 -16529.487095  -2367.196923       .055976                    
P 30 -15375.426176  17729.965492 -12671.826125     63.541912                    
V 30 -15167.855151   4589.469328  25593.971484       .015027                    
P 31   8091.655107  20457.230166 -14603.159530     -8.910993                    
V 31  -3974.092141  18633.733753  23655.200975      -.014759                    
P 32  12760.237042  10801.407197  21051.780658    226.357310                    
V 32 -24028.606879   9218.766736  10208.427843       .093448                    
EOF
